{"fetched_at":"2026-04-30T02:46:39Z","count":4960,"tles":[{"name":"NUSAT-25 (MARIA TELKES)","line1":"1 52171U 22033Q   23362.46160210  .00014621  00000+0  56233-3 0  9997","line2":"2 52171  97.3065  78.6893 0002554 144.7143 215.4265 15.26497612 97036","category":"Other"},{"name":"GARAI-A","line1":"1 62635U 25009AC  26119.22348838  .00006187  00000+0  28856-3 0  9998","line2":"2 62635  97.4011 199.9936 0003938 129.6231 230.5352 15.20212265 71340","category":"Other"},{"name":"COLIBRI-S (RS67S)","line1":"1 61746U 24199M   26119.60365357  .00020847  00000+0  43211-3 0  9997","line2":"2 61746  97.3072 353.0730 0010820  97.1156 263.1324 15.45701116129908","category":"Other"},{"name":"LUR-1","line1":"1 60506U 24149AQ  26119.18509322  .00006973  00000+0  24673-3 0  9995","line2":"2 60506  97.3748 198.3916 0005669 113.9228 246.2607 15.29453322 94484","category":"Other"},{"name":"SPACEEYE-T1","line1":"1 63229U 25052V   26119.61935684  .00004861  00000+0  21560-3 0  9992","line2":"2 63229  97.4011  12.9472 0003965 343.1658  16.9446 15.22049844 62450","category":"Other"},{"name":"KINEIS-3B","line1":"1 61224U 24172E   26119.49078843  .00002198  00000+0  35547-3 0  9999","line2":"2 61224  98.0397 210.0331 0001627 178.7872 181.3340 14.72318154 86188","category":"Other"},{"name":"IRIS-F3","line1":"1 62619U 25009L   26119.16128450  .00005307  00000+0  20633-3 0  9997","line2":"2 62619  97.4046 200.4061 0007946 129.0978 231.0968 15.26438665 71341","category":"Other"},{"name":"ICEYE-X57","line1":"1 64578U 25135BC  26119.59783028  .00004200  00000+0  33502-3 0  9998","line2":"2 64578  97.7790 235.9645 0002027  48.2865 311.8532 15.00859739 46739","category":"Other"},{"name":"SITRO-AIS 28","line1":"1 59071U 24039U   26119.61919707  .00005710  00000+0  44298-3 0  9991","line2":"2 59071  95.3928 201.9268 0146477 136.4782 224.8114 14.93374926117490","category":"Other"},{"name":"SAUDISAT 5A","line1":"1 43831U 18102A   26119.63197073  .00005426  00000+0  20395-3 0  9994","line2":"2 43831  97.3105 182.1578 0008270 312.3121  47.7417 15.27546621408267","category":"Other"},{"name":"MESAT1","line1":"1 60209U 24125G   26119.56814675  .00046005  00000+0  60347-3 0  9999","line2":"2 60209  97.2362 336.1085 0011273  46.0447 314.1737 15.58347583101987","category":"Other"},{"name":"ICEYE-X43","line1":"1 60539U 24149BZ  26119.58970869  .00002614  00000+0  21674-3 0  9999","line2":"2 60539  97.6803 197.2237 0002763 248.3801 111.7128 14.99681042 92830","category":"Other"},{"name":"CARTOSAT-2F","line1":"1 43111U 18004A   26119.60054012  .00003401  00000+0  16430-3 0  9994","line2":"2 43111  97.4075 179.8132 0002481  90.1916 269.9603 15.19304004459950","category":"Other"},{"name":"BEIDOU-3 M9","line1":"1 43245U 18029A   26118.01145235 -.00000070  00000+0  00000+0 0  9993","line2":"2 43245  54.2403 301.7017 0000997  84.3142 275.6896  1.86228173 54969","category":"GPS"},{"name":"2024-024G","line1":"1 58923U 24024G   26111.61655249  .10152892  24702-5  94718-3 0  9998","line2":"2 58923  97.2921 208.5414 0015510 249.5484 110.4149 16.38359028124621","category":"Other"},{"name":"DEKART","line1":"1 46493U 20068H   26119.56705148  .00011946  00000+0  34032-3 0  9992","line2":"2 46493  97.8757 125.3983 0011223  97.6490 262.6027 15.36202414308303","category":"Other"},{"name":"SIT-HSE","line1":"1 61763U 24199AE  26119.59736874  .00021736  00000+0  39180-3 0  9998","line2":"2 61763  97.3044 355.1607 0007029 110.8722 249.3282 15.49770425130051","category":"Other"},{"name":"WILDFIRE 1","line1":"1 57764U 23133H   26119.51319584  .00000065  00000+0  46993-4 0  9991","line2":"2 57764  81.0011  53.7306 0007152 125.1761 235.0067 13.85722971134314","category":"Other"},{"name":"PE2_FLT2  (TYVAK-0262)","line1":"1 59104U 24043G   26119.59653489  .00002493  00000+0  22187-3 0  9990","line2":"2 59104  97.8331 250.1626 0005634 191.4129 168.6966 14.96979010117387","category":"Other"},{"name":"ICEYE-X41","line1":"1 62700U 25009CV  26119.52972190  .00003189  00000+0  28627-3 0  9993","line2":"2 62700  97.7076 199.7756 0002084 145.3300 214.8058 14.96434283 70130","category":"Other"},{"name":"ORBCOMM FM110","line1":"1 41182U 15081D   26119.27211066  .00000746  00000+0  19425-3 0  9995","line2":"2 41182  47.0016 232.7130 0003708 217.2653 142.7976 14.58825745550485","category":"Other"},{"name":"RESOURCESAT-2A","line1":"1 41877U 16074A   26119.64761777 -.00000045  00000+0 -58373-6 0  9991","line2":"2 41877  98.7541 193.5455 0001668 185.8432 174.2726 14.21601050487409","category":"Other"},{"name":"HONGHU 2","line1":"1 58555U 23193C   26119.60257666  .00193757  00000+0  96814-2 0  9994","line2":"2 58555  97.2794 111.3857 0043677  86.8344 273.7885 15.15758037 94616","category":"Other"},{"name":"BOTAN","line1":"1 65942U 98067XP  26062.30429370  .04760636  12041-4  14503-2 0  9999","line2":"2 65942  51.6040  82.5602 0002926  46.9281 313.1984 16.26065139 22592","category":"Other"},{"name":"2024-105A","line1":"1 59917U 24105A   26119.59305728  .00004385  00000+0  22615-3 0  9999","line2":"2 59917  97.5856 134.7974 0014557  42.9926 317.2442 15.16793924105660","category":"Other"},{"name":"ION SCV-017","line1":"1 63230U 25052W   26119.62790778  .00004422  00000+0  16671-3 0  9998","line2":"2 63230  97.3966  15.2267 0021003 218.0820 141.8936 15.27391742 62625","category":"Other"},{"name":"NOVASAR 1","line1":"1 43619U 18071B   26119.63549278  .00000459  00000+0  45592-4 0  9999","line2":"2 43619  97.5141 353.9311 0001030  84.4597 275.6743 14.96195328415673","category":"Other"},{"name":"CORVUS BC4","line1":"1 43767U 18099K   26119.62175945  .00004233  00000+0  24938-3 0  9992","line2":"2 43767  97.4112 164.0273 0009020 158.8579 201.3027 15.12092001405061","category":"Other"},{"name":"FLOCK 4Q-1","line1":"1 58270U 23174Q   23361.75826943  .00008715  00000+0  47710-3 0  9990","line2":"2 58270  97.4811  73.9111 0012547 116.0953 244.1572 15.14404577  7561","category":"Other"},{"name":"IRIS-F2","line1":"1 62684U 25009CD  26119.15514428  .00006038  00000+0  23996-3 0  9999","line2":"2 62684  97.3897 199.4855 0006256 150.9574 209.2014 15.25658788128983","category":"Other"},{"name":"QPS-SAR-2 (IZANAMI)","line1":"1 47485U 21006CA  23362.43273933  .00083822  00000+0  14678-2 0  9997","line2":"2 47485  97.3588  61.9172 0005005 102.7298 257.4513 15.50296774162568","category":"Other"},{"name":"LKW-3","line1":"1 43146U 18006A   26119.61101862  .00010944  00000+0  33193-3 0  9996","line2":"2 43146  97.6556 278.3395 0004209 112.2742 247.8947 15.34297269461267","category":"Other"},{"name":"2025-234B","line1":"1 66054U 25234B   26119.63880707  .00004916  00000+0  22760-3 0  9994","line2":"2 66054  97.4786 189.2442 0009619 260.8294  99.1853 15.20546586 29266","category":"Other"},{"name":"NISAR","line1":"1 65053U 25163A   26119.61014629  .00000276  00000+0  96464-4 0  9991","line2":"2 65053  98.4056 307.9836 0001210  88.9492 271.1837 14.42505206 39384","category":"Other"},{"name":"INMARSAT 4-F1","line1":"1 28628U 05009A   26119.59767236  .00000033  00000+0  00000+0 0  9998","line2":"2 28628   5.1049  42.6895 0003039 354.6925 213.4429  1.00273483 77186","category":"Other"},{"name":"BEIDOU-2 G6","line1":"1 38953U 12059A   26119.50534448 -.00000175  00000+0  00000+0 0  9999","line2":"2 38953   4.3006  74.0286 0010747 315.6158  93.7246  1.00274590 49426","category":"GPS"},{"name":"SAUDISAT 5B","line1":"1 43833U 18102C   26119.59391253  .00005201  00000+0  19390-3 0  9991","line2":"2 43833  97.3208 185.1023 0009034 314.7921  45.2583 15.27829144408377","category":"Other"},{"name":"FFLY01","line1":"1 65320U 25188F   26119.56966389  .00001716  00000+0  17086-3 0  9990","line2":"2 65320  97.7391 195.6270 0010104 343.7216  16.3677 14.92893105 36658","category":"Other"},{"name":"LASARSAT","line1":"1 62391U 24247Q   26119.21941540  .00026093  00000+0  57714-3 0  9991","line2":"2 62391  44.9747 176.7347 0005195  12.7225 347.3794 15.43397306 75743","category":"Other"},{"name":"OCEANSAT-2","line1":"1 35931U 09051A   26119.58896257 -.00000157  00000+0 -81485-4 0  9999","line2":"2 35931  98.2301 111.3000 0015882  16.6129 343.5555 13.99649210872530","category":"Other"},{"name":"HYDRA-W","line1":"1 63490U 25052BL  26112.26439385  .02130398  41366-2  26477-2 0  9994","line2":"2 63490  97.3739  16.4004 0007523 180.8298 179.2974 16.08789288 62060","category":"Other"},{"name":"BNU-1 (JINGSHI 1)","line1":"1 44529U 19059B   26119.58703076  .00000538  00000+0  15606-3 0  9999","line2":"2 44529  98.5981 247.7893 0013786 155.9449 204.2390 14.48349154349951","category":"Other"},{"name":"TUSUR GO (RS78S)","line1":"1 61782U 24199AZ  26119.59827434  .00811097  31866-3  14606-2 0  9992","line2":"2 61782  97.2863   0.5622 0005232 154.3571 205.7968 16.01666734127270","category":"Other"},{"name":"QUBE","line1":"1 60476U 24149J   26119.17758617  .00022852  00000+0  48690-3 0  9992","line2":"2 60476  97.3777 204.7546 0002799  77.0618 283.0943 15.44932346 94899","category":"Other"},{"name":"TRANSPORTER-15 OBJECT R","line1":"1 66681U 25276R   26119.47033869  .00014620  00000+0  63367-3 0  9998","line2":"2 66681  97.4140 194.0010 0005987 174.5322 185.5981 15.22463843 23046","category":"Other"},{"name":"COSMOS 2588","line1":"1 64095U 25109A   26119.71136839  .00007323  00000+0  26763-3 0  9999","line2":"2 64095  72.9710 318.3348 0012501 213.6144 146.4259 15.28247012 52204","category":"Other"},{"name":"JINJUSAT-1B","line1":"1 63210U 25052A   26119.63857371  .00015887  00000+0  51641-3 0  9993","line2":"2 63210  97.4062  16.3730 0001301 235.8983 124.2135 15.31987800 62665","category":"Other"},{"name":"SITRO-AIS 27","line1":"1 59068U 24039T   26119.64063469  .00006772  00000+0  52495-3 0  9992","line2":"2 59068  95.3928 201.8965 0146760 136.4820 224.8098 14.93340720117493","category":"Other"},{"name":"TOMORROW-S4","line1":"1 62386U 24247K   26119.26048640  .00005371  00000+0  20053-3 0  9991","line2":"2 62386  44.9818 200.7557 0002075 126.8785 233.2288 15.28490655 75463","category":"Other"}]}